NSS-12                  
1 36032U 09058A   22146.81924170  .00000072  00000+0  00000+0 0  9990
2 36032   0.0557  94.1060 0002719 334.1673 168.0070  1.00270364 46059
THOR 6                  
1 36033U 09058B   22146.73452113 -.00000010  00000+0  00000+0 0  9998
2 36033   0.0146  78.9599 0001831  10.3835  58.4983  1.00270017 46148
INTELSAT 14 (IS-14)     
1 36097U 09064A   22147.11493792 -.00000272  00000+0  00000+0 0  9996
2 36097   0.0189 310.2644 0002495 119.4041 171.3790  1.00271553 45837
EUTELSAT 36B            
1 36101U 09065A   22147.57451385  .00000158  00000+0  00000+0 0  9997
2 36101   0.0684 356.6893 0005057  70.2764  60.8521  1.00269333 45956
INTELSAT 15 (IS-15)     
1 36106U 09067A   22147.24077198 -.00000184  00000+0  00000+0 0  9994
2 36106   0.0181  24.3140 0002192  42.1510 350.1307  1.00272065 45741
WGS F3 (USA 211)        
1 36108U 09068A   22147.06438346 -.00000191  00000+0  00000+0 0  9991
2 36108   0.1709  94.8514 0000362 229.2859  29.3656  1.00276159 45647
DIRECTV 12              
1 36131U 09075A   22147.42840438 -.00000102  00000+0  00000+0 0  9996
2 36131   0.0505 137.0367 0000377 243.6909 275.7509  1.00272427 45529
BEIDOU 3                
1 36287U 10001A   22147.71931058 -.00000278  00000+0  00000+0 0  9994
2 36287   1.8500  47.2870 0004303  21.2104 216.0856  1.00275761 45309
RADUGA-1M 2             
1 36358U 10002A   22147.24077198 -.00000183  00000+0  00000+0 0  9993
2 36358   0.0677 264.9203 0001786 190.6361 320.8823  1.00274328 45159
SDO                     
1 36395U 10005A   22146.43188312 -.00000050  00000+0  00000+0 0  9991
2 36395  31.6155 109.5748 0001704 261.4381 286.5875  1.00271911 45192
INTELSAT 16 (IS-16)     
1 36397U 10006A   22146.53799420 -.00000246  00000+0  00000+0 0  9990
2 36397   0.0140  18.1652 0001844  56.3825 287.0173  1.00277573 44787
GOES 15                 
1 36411U 10008A   22147.39973859  .00000056  00000+0  00000+0 0  9992
2 36411   0.2442 103.6212 0001676 339.6791 177.6598  1.00262408 44804
ECHOSTAR 14             
1 36499U 10010A   22147.35603580  .00000000  00000+0  00000+0 0  9997
2 36499   0.0181 301.0401 0003114 122.6206 190.5037  1.00284712 44671
SES-1                   
1 36516U 10016A   22147.50604812 -.00000112  00000+0  00000+0 0  9994
2 36516   0.0208 308.5327 0002672 117.6168 260.0576  1.00271180 44282
ASTRA 3B                
1 36581U 10021A   22147.29632657  .00000139  00000+0  00000+0 0  9994
2 36581   0.0615  52.7012 0003099   1.2363 321.0892  1.00271282 43791
COMSATBW-2              
1 36582U 10021B   22147.30188354  .00000090  00000+0  00000+0 0  9993
2 36582   0.0440 118.1066 0002451 325.1017 283.4689  1.00270986 44133
BADR-5                  
1 36592U 10025A   22147.20257890  .00000146  00000+0  00000+0 0  9991
2 36592   0.0222  93.0724 0004154  11.2187 239.3421  1.00272123 44046
COMS 1                  
1 36744U 10032A   22147.00049211 -.00000343  00000+0  00000+0 0  9992
2 36744   1.0129  93.0347 0000753 347.3452 292.4723  1.00270384 43795
ARABSAT-5A              
1 36745U 10032B   22147.29077218  .00000155  00000+0  00000+0 0  9992
2 36745   0.0537  23.8093 0004654  75.0156 281.2159  1.00274612 43772
ECHOSTAR 15             
1 36792U 10034A   22147.42189729 -.00000280  00000+0  00000+0 0  9992
2 36792   0.0412  90.6040 0002243 307.8898 296.6991  1.00273304 43547
BEIDOU 5                
1 36828U 10036A   22146.63589263 -.00000043  00000+0  00000+0 0  9990
2 36828  54.1898 176.4282 0027936 191.2154 211.3155  1.00252440 43366
NILESAT 201             
1 36830U 10037A   22147.35098248 -.00000055  00000+0  00000+0 0  9995
2 36830   0.0580 150.6689 0003924 299.4266 274.1494  1.00272942 43438
RASCOM-QAF 1R           
1 36831U 10037B   22147.07202051  .00000020  00000+0  00000+0 0  9995
2 36831   0.0048  38.2012 0005240  31.0358 204.2101  1.00273553 43432
AEHF-1 (USA 214)        
1 36868U 10039A   22146.76961226  .00000026  00000+0  00000+0 0  9994
2 36868   4.4794  87.0588 0006966   2.0723  76.2013  1.00272932 38790
QZS-1 (MICHIBIKI-1)     
1 37158U 10045A   22146.27132977 -.00000078  00000+0  00000+0 0  9991
2 37158  42.3126 133.6906 0759110 270.5360  79.7824  1.00264301 42862
XM-5                    
1 37185U 10053A   22146.50952193 -.00000024  00000+0  00000+0 0  9997
2 37185   0.0152 357.4202 0000395 204.6929 110.1685  1.00271649 42611
BSAT-3B                 
1 37207U 10056B   22147.57098816 -.00000348  00000+0  00000+0 0  9995
2 37207   0.0483 341.6228 0001996  22.4702 196.4131  1.00273272 42414
BEIDOU 6                
1 37210U 10057A   22147.62427471 -.00000110  00000+0  00000+0 0  9996
2 37210   0.8208  44.9500 0002369 130.3432  94.6054  1.00271748 42421
SKYTERRA 1              
1 37218U 10061A   22146.60017740 -.00000119  00000+0  00000+0 0  9999
2 37218   2.4229  31.7467 0003147 351.4265 335.7101  1.00272138 42326
ZHONGXING-20A           
1 37234U 10064A   22147.53591080 -.00000353  00000+0  00000+0 0  9997
2 37234   2.5983  88.7907 0002371 349.8666 115.8449  1.00116336 42179
HYLAS 1                 
1 37237U 10065A   22147.51715979  .00000029  00000+0  00000+0 0  9993
2 37237   1.8665  90.4335 0002015 322.9963 254.5522  1.00273268 42141
INTELSAT 17 (IS-17)     
1 37238U 10065B   22146.92552889 -.00000001  00000+0  00000+0 0  9998
2 37238   0.0070 263.6774 0002563 162.0844 217.8974  1.00270714 38379
BEIDOU 7                
1 37256U 10068A   22147.23819906 -.00000232  00000+0  00000+0 0  9998
2 37256  50.2494 289.8988 0020801 183.1279 324.2228  1.00256206 41935
EUTELSAT KA-SAT 9A      
1 37258U 10069A   22147.06646601  .00000062  00000+0  00000+0 0  9992
2 37258   0.0612 275.3313 0004584 195.4377 166.7348  1.00271474 41957
HISPASAT 30W-5          
1 37264U 10070A   22146.76507663 -.00000216  00000+0  00000+0 0  9993
2 37264   0.0598 110.1341 0005202 336.8398  42.7724  1.00271595 38328
KOREASAT 6              
1 37265U 10070B   22147.00743668 -.00000361  00000+0  00000+0 0  9990
2 37265   0.0497  97.3440 0001596 341.8248 284.0430  1.00271006 41826
BEIDOU 8                
1 37384U 11013A   22147.57917771 -.00000221  00000+0  00000+0 0  9995
2 37384  60.2630  54.4663 0017775 188.9239 317.5517  1.00261589 40813
INTELSAT NEW DAWN       
1 37392U 11016A   22147.03799543  .00000157  00000+0  00000+0 0  9990
2 37392   0.0240 262.2653 0000463 168.4288 220.3514  1.00274124 40651
YAHSAT 1A               
1 37393U 11016B   22147.03243856  .00000102  00000+0  00000+0 0  9992
2 37393   0.0159 284.5040 0001942 170.2520 213.9779  1.00270659 40695
SBIRS GEO-1 (USA 230)   
1 37481U 11019A   22147.05882642 -.00000008  00000+0  00000+0 0  9993
2 37481   1.9018  22.7909 0001934  43.9914 265.1928  1.00272030 40473
TELSTAR 14R             
1 37602U 11021A   22147.42036302 -.00000278  00000+0  00000+0 0  9995
2 37602   0.0182 340.2529 0002993  75.4959 277.5222  1.00270554 40935
GSAT-8                  
1 37605U 11022A   22147.60203484  .00000087  00000+0  00000+0 0  9993
2 37605   0.0124  68.3994 0003015 243.2587 205.3065  1.00273854 40385
ST-2                    
1 37606U 11022B   22146.70525566 -.00000212  00000+0  00000+0 0  9993
2 37606   0.0116 339.8887 0001770 116.5968 129.6633  1.00269859 40418
CHINASAT 10 (ZX 10)     
1 37677U 11026A   22147.00743668 -.00000351  00000+0  00000+0 0  9998
2 37677   0.0560 250.2497 0002637 255.2325 212.2676  1.00272395 40104
TIANLIAN 1-02           
1 37737U 11032A   22146.83747109 -.00000050  00000+0  00000+0 0  9992
2 37737   2.2619  74.1199 0084576 358.1607 280.5381  1.00271927 39851
GSAT-12                 
1 37746U 11034A   22146.85723837  .00000125  00000+0  00000+0 0  9990
2 37746   1.3271  92.7283 0011312 351.2115 157.0232  1.00273751 28635
SES-3                   
1 37748U 11035A   22146.59982852 -.00000102  00000+0  00000+0 0  9994
2 37748   0.0453  73.8307 0002797 348.0356 295.2002  1.00271870 39722
KAZSAT-2                
1 37749U 11035B   22147.24077198 -.00000195  00000+0  00000+0 0  9998
2 37749   0.0347 262.8250 0000602 245.6011 269.5076  1.00265489 39718
BEIDOU 9                
1 37763U 11038A   22147.59692777  .00000002  00000+0  00000+0 0  9997
2 37763  54.4737 178.9095 0097531 227.8604 148.0899  1.00283673 39798
ASTRA 1N                
1 37775U 11041A   22146.63466736  .00000119  00000+0  00000+0 0  9991
2 37775   0.0833  64.9275 0005602 345.5404  81.3829  1.00272461 29663
BSAT-3C (JCSAT-110R)    
1 37776U 11041B   22147.57098806 -.00000348  00000+0  00000+0 0  9990
2 37776   0.0170 333.8828 0000199 294.1541 292.5753  1.00269262 39665
PAKSAT-1R               
1 37779U 11042A   22146.87618726  .00000154  00000+0  00000+0 0  9999
2 37779   0.0035 171.2015 0002954 256.3931 170.1466  1.00272641 39616
CHINASAT 1A (ZX 1A)     
1 37804U 11047A   22147.55108184 -.00000335  00000+0  00000+0 0  9993
2 37804   0.0273 272.6246 0001742  79.8650 220.8251  1.00273672 39217
SES-2                   
1 37809U 11049A   22147.50049378 -.00000194  00000+0  00000+0 0  9997
2 37809   0.0109 350.8470 0002782  73.5678 273.7964  1.00271859 39149
ARABSAT-5C              
1 37810U 11049B   22146.82438457  .00000123  00000+0  00000+0 0  9994
2 37810   0.0558  13.3598 0004551 112.4644  75.3076  1.00273260 39196
EUTELSAT 7 WEST A       
1 37816U 11051A   22147.36581714 -.00000058  00000+0  00000+0 0  9996
2 37816   0.0870  48.5831 0005884  96.7951 223.9108  1.00272659 39114
QUETZSAT 1              
1 37826U 11054A   22146.94115473 -.00000241  00000+0  00000+0 0  9992
2 37826   0.0150 326.0509 0002870 107.2172  73.0296  1.00272988 35031
INTELSAT 18 (IS-18)     
1 37834U 11056A   22147.60123459  .00000055  00000+0  00000+0 0  9992
2 37834   0.0245   8.0575 0001828  54.8032 218.7135  1.00271694 38989
EUTELSAT 16A            
1 37836U 11057A   22146.63066661  .00000103  00000+0  00000+0 0  9992
2 37836   0.0702  15.9410 0005466  57.5812  53.6839  1.00272150 31104
